{
  "type": "FeatureCollection",
  "features": [
    {
      "type": "Feature",
      "properties": {
        "norad_id": 34540,
        "name": "IRIDIUM 33 DEB",
        "group": "iridium-33-debris",
        "lat": -3.70496533806358,
        "lon": 125.2335092187591,
        "alt_km": 638.6487176921992,
        "timestamp": "2025-12-18T10:51:26.195879+00:00",
        "meta_object_name": "IRIDIUM 33 DEB",
        "meta_object_id": "1997-051JH",
        "meta_epoch": "2025-12-17T21:15:02.173248",
        "meta_mean_motion": 14.75425645,
        "meta_eccentricity": 0.00172318,
        "meta_inclination": 86.31,
        "meta_ra_of_asc_node": 305.2533,
        "meta_arg_of_pericenter": 141.4592,
        "meta_mean_anomaly": 272.6134,
        "meta_ephemeris_type": 0,
        "meta_classification_type": "U",
        "meta_norad_cat_id": 34540,
        "meta_element_set_no": 999,
        "meta_rev_at_epoch": 89097,
        "meta_bstar": 0.0012315699,
        "meta_mean_motion_dot": 8.411e-05,
        "meta_mean_motion_ddot": 0,
        "tle_line1": "1 34540U 97051JH  25351.88544182  .00008411  00000+0  12316-2 0  9992",
        "tle_line2": "2 34540  86.3100 305.2533 0017231 141.4592 272.6134 14.75425645890978"
      },
      "geometry": {
        "type": "Point",
        "coordinates": [
          125.2335092187591,
          -3.70496533806358
        ]
      }
    },
    {
      "type": "Feature",
      "properties": {
        "norad_id": 34648,
        "name": "IRIDIUM 33 DEB",
        "group": "iridium-33-debris",
        "lat": 79.12800062122723,
        "lon": 80.45360629833961,
        "alt_km": 977.5795653352634,
        "timestamp": "2025-12-18T10:51:26.195890+00:00",
        "meta_object_name": "IRIDIUM 33 DEB",
        "meta_object_id": "1997-051JZ",
        "meta_epoch": "2025-12-17T05:27:16.397568",
        "meta_mean_motion": 14.11635148,
        "meta_eccentricity": 0.01813922,
        "meta_inclination": 86.3906,
        "meta_ra_of_asc_node": 280.1344,
        "meta_arg_of_pericenter": 284.869,
        "meta_mean_anomaly": 73.2466,
        "meta_ephemeris_type": 0,
        "meta_classification_type": "U",
        "meta_norad_cat_id": 34648,
        "meta_element_set_no": 999,
        "meta_rev_at_epoch": 85024,
        "meta_bstar": 0.0057584356,
        "meta_mean_motion_dot": 0.00012245,
        "meta_mean_motion_ddot": 0,
        "tle_line1": "1 34648U 97051JZ  25351.22727312  .00012245  00000+0  57584-2 0  9993",
        "tle_line2": "2 34648  86.3906 280.1344 0181392 284.8690  73.2466 14.11635148850243"
      },
      "geometry": {
        "type": "Point",
        "coordinates": [
          80.45360629833961,
          79.12800062122723
        ]
      }
    },
    {
      "type": "Feature",
      "properties": {
        "norad_id": 34651,
        "name": "IRIDIUM 33 DEB",
        "group": "iridium-33-debris",
        "lat": 86.24146616645666,
        "lon": -140.09990971326584,
        "alt_km": 807.8506609032593,
        "timestamp": "2025-12-18T10:51:26.195900+00:00",
        "meta_object_name": "IRIDIUM 33 DEB",
        "meta_object_id": "1997-051KC",
        "meta_epoch": "2025-12-17T20:57:25.560000",
        "meta_mean_motion": 14.25899188,
        "meta_eccentricity": 0.014224,
        "meta_inclination": 86.2826,
        "meta_ra_of_asc_node": 138.3936,
        "meta_arg_of_pericenter": 187.682,
        "meta_mean_anomaly": 172.2195,
        "meta_ephemeris_type": 0,
        "meta_classification_type": "U",
        "meta_norad_cat_id": 34651,
        "meta_element_set_no": 999,
        "meta_rev_at_epoch": 85969,
        "meta_bstar": 0.0024199214,
        "meta_mean_motion_dot": 6.428e-05,
        "meta_mean_motion_ddot": 0,
        "tle_line1": "1 34651U 97051KC  25351.87321250  .00006428  00000+0  24199-2 0  9991",
        "tle_line2": "2 34651  86.2826 138.3936 0142240 187.6820 172.2195 14.25899188859690"
      },
      "geometry": {
        "type": "Point",
        "coordinates": [
          -140.09990971326584,
          86.24146616645666
        ]
      }
    },
    {
      "type": "Feature",
      "properties": {
        "norad_id": 34652,
        "name": "IRIDIUM 33 DEB",
        "group": "iridium-33-debris",
        "lat": 14.174288600562871,
        "lon": 156.52947784863045,
        "alt_km": 694.1270303617785,
        "timestamp": "2025-12-18T10:51:26.195921+00:00",
        "meta_object_name": "IRIDIUM 33 DEB",
        "meta_object_id": "1997-051KD",
        "meta_epoch": "2025-12-17T16:49:34.360896",
        "meta_mean_motion": 14.62104156,
        "meta_eccentricity": 0.00256012,
        "meta_inclination": 86.3312,
        "meta_ra_of_asc_node": 337.7924,
        "meta_arg_of_pericenter": 280.0714,
        "meta_mean_anomaly": 253.9432,
        "meta_ephemeris_type": 0,
        "meta_classification_type": "U",
        "meta_norad_cat_id": 34652,
        "meta_element_set_no": 999,
        "meta_rev_at_epoch": 88556,
        "meta_bstar": 0.0007419997,
        "meta_mean_motion_dot": 3.766e-05,
        "meta_mean_motion_ddot": 0,
        "tle_line1": "1 34652U 97051KD  25351.70109214  .00003766  00000+0  74200-3 0  9999",
        "tle_line2": "2 34652  86.3312 337.7924 0025601 280.0714 253.9432 14.62104156885566"
      },
      "geometry": {
        "type": "Point",
        "coordinates": [
          156.52947784863045,
          14.174288600562871
        ]
      }
    },
    {
      "type": "Feature",
      "properties": {
        "norad_id": 34690,
        "name": "IRIDIUM 33 DEB",
        "group": "iridium-33-debris",
        "lat": -65.17402668641762,
        "lon": -137.62131657622572,
        "alt_km": 720.5038000537379,
        "timestamp": "2025-12-18T10:51:26.195968+00:00",
        "meta_object_name": "IRIDIUM 33 DEB",
        "meta_object_id": "1997-051KM",
        "meta_epoch": "2025-12-17T14:37:45.220224",
        "meta_mean_motion": 14.55113538,
        "meta_eccentricity": 0.00102521,
        "meta_inclination": 86.378,
        "meta_ra_of_asc_node": 34.8752,
        "meta_arg_of_pericenter": 13.538,
        "meta_mean_anomaly": 139.6507,
        "meta_ephemeris_type": 0,
        "meta_classification_type": "U",
        "meta_norad_cat_id": 34690,
        "meta_element_set_no": 999,
        "meta_rev_at_epoch": 88165,
        "meta_bstar": 0.00032504692,
        "meta_mean_motion_dot": 1.424e-05,
        "meta_mean_motion_ddot": 0,
        "tle_line1": "1 34690U 97051KM  25351.60955116  .00001424  00000+0  32505-3 0  9991",
        "tle_line2": "2 34690  86.3780  34.8752 0010252  13.5380 139.6507 14.55113538881650"
      },
      "geometry": {
        "type": "Point",
        "coordinates": [
          -137.62131657622572,
          -65.17402668641762
        ]
      }
    },
    {
      "type": "Feature",
      "properties": {
        "norad_id": 34693,
        "name": "IRIDIUM 33 DEB",
        "group": "iridium-33-debris",
        "lat": 3.6013470360240607,
        "lon": -58.78311919437937,
        "alt_km": 473.7885000902179,
        "timestamp": "2025-12-18T10:51:26.195991+00:00",
        "meta_object_name": "IRIDIUM 33 DEB",
        "meta_object_id": "1997-051KQ",
        "meta_epoch": "2025-12-17T03:29:01.779936",
        "meta_mean_motion": 15.28993867,
        "meta_eccentricity": 0.0012502,
        "meta_inclination": 86.3047,
        "meta_ra_of_asc_node": 301.6344,
        "meta_arg_of_pericenter": 45.3487,
        "meta_mean_anomaly": 327.2881,
        "meta_ephemeris_type": 0,
        "meta_classification_type": "U",
        "meta_norad_cat_id": 34693,
        "meta_element_set_no": 999,
        "meta_rev_at_epoch": 88982,
        "meta_bstar": 0.0037800508,
        "meta_mean_motion_dot": 0.00107985,
        "meta_mean_motion_ddot": 0,
        "tle_line1": "1 34693U 97051KQ  25351.14515949  .00107985  00000+0  37801-2 0  9991",
        "tle_line2": "2 34693  86.3047 301.6344 0012502  45.3487 327.2881 15.28993867889821"
      },
      "geometry": {
        "type": "Point",
        "coordinates": [
          -58.78311919437937,
          3.6013470360240607
        ]
      }
    },
    {
      "type": "Feature",
      "properties": {
        "norad_id": 34696,
        "name": "IRIDIUM 33 DEB",
        "group": "iridium-33-debris",
        "lat": -53.143552000884206,
        "lon": -150.02872657990744,
        "alt_km": 678.1238531020554,
        "timestamp": "2025-12-18T10:51:26.196008+00:00",
        "meta_object_name": "IRIDIUM 33 DEB",
        "meta_object_id": "1997-051KT",
        "meta_epoch": "2025-12-17T09:30:23.079744",
        "meta_mean_motion": 14.6532937,
        "meta_eccentricity": 0.00740014,
        "meta_inclination": 86.1851,
        "meta_ra_of_asc_node": 25.356,
        "meta_arg_of_pericenter": 151.7649,
        "meta_mean_anomaly": 272.0645,
        "meta_ephemeris_type": 0,
        "meta_classification_type": "U",
        "meta_norad_cat_id": 34696,
        "meta_element_set_no": 999,
        "meta_rev_at_epoch": 86741,
        "meta_bstar": 0.0031909268,
        "meta_mean_motion_dot": 0.00017981,
        "meta_mean_motion_ddot": 0,
        "tle_line1": "1 34696U 97051KT  25351.39610046  .00017981  00000+0  31909-2 0  9994",
        "tle_line2": "2 34696  86.1851  25.3560 0074001 151.7649 272.0645 14.65329370867417"
      },
      "geometry": {
        "type": "Point",
        "coordinates": [
          -150.02872657990744,
          -53.143552000884206
        ]
      }
    }
  ]
}